FENGYUN 1C DEB          
1 36218U 99025DUT 17345.25035626  .00000627  00000-0  17345-3 0  9992
2 36218  99.0337 270.3685 0108211  80.3139 281.0255 14.47206666486914
